#aV2012 11  2  0  0  0.00000000     288 DD+AD WGS84 FIT  NGA
## 1712 432000.00000000   300.00000000 56233 0.0000000000000
+   31     1  2  3  4  5  6  7  8  9 10 11 12 13 14 15 16 17
+         18 19 20 21 22 23 24 25 26 28 29 30 31 32  0  0  0
+          0  0  0  0  0  0  0  0  0  0  0  0  0  0  0  0  0
+          0  0  0  0  0  0  0  0  0  0  0  0  0  0  0  0  0
+          0  0  0  0  0  0  0  0  0  0  0  0  0  0  0  0  0
++         2  2  2  2  2  2  2  2  2  2  2  2  2  2  2  2  2
++         2  2  2  2  2  2  2  2  2  2  2  2  2  2  2  0  0
++         0  0  0  0  0  0  0  0  0  0  0  0  0  0  0  0  0
++         0  0  0  0  0  0  0  0  0  0  0  0  0  0  0  0  0
++         0  0  0  0  0  0  0  0  0  0  0  0  0  0  0  0  0
%c cc cc ccc ccc cccc cccc cccc cccc ccccc ccccc ccccc ccccc
%c cc cc ccc ccc cccc cccc cccc cccc ccccc ccccc ccccc ccccc
%f  0.0000000  0.000000000  0.00000000000  0.000000000000000
%f  0.0000000  0.000000000  0.00000000000  0.000000000000000
%i    0    0    0    0      0      0      0      0         0
%i    0    0    0    0      0      0      0      0         0
/*      NGA, ST. LOUIS,MO.                                  
/*   EPHEMERIS COMPUTED FROM  1 DAYS OF DATA
/*   EPOCHA SMOOTHER  
/* CCCCCCCCCCCCCCCCCCCCCCCCCCCCCCCCCCCCCCCCCCCCCCCCCCCCCCCCC
*  2012 11  2  9 20  0.00000000                                                 
P  1  -2440.291787 -15083.272078 -21744.899325    280.545725                    
V  1  26785.969709  -6509.385739   1567.337451      0.017561                    
P  2 -18274.528768  14378.590521  12509.744588    407.736911                    
V  2 -16174.597404   1026.791921 -25623.093936      0.010944                    
P  3   9254.503215 -23302.570708   7888.180674    122.829793                    
V  3   2183.450952  11218.365935  29014.200264      0.052594                    
P  4 -26127.012071   5528.064335  -1318.921356     34.155021                    
V  4    509.084433  -3506.687311 -30977.252621      0.112745                    
P  5  -7062.778105  14407.655684  21121.802485   -363.789029                    
V  5 -19237.508203 -18866.997583   6568.475754     -0.026266                    
P  6  13695.587559 -18774.930627  12657.071750    468.853439                    
V  6   -551.215059  16366.029675  25391.564185     -0.102125                    
P  7 -18061.217216  -8240.873436  17822.693446    140.667762                    
V  7  21573.826995  -6176.551377  18768.317147      0.045094                    
P  8 -25711.863055  -1469.984568   7758.165748      2.653802                    
V  8   9300.824613  -2336.271319  30182.950876      0.002225                    
P  9  -2889.776507  15682.964814 -21800.307426    196.813445                    
V  9 -25599.701168   6113.280453   7932.766204      0.027540                    
P 10 -19720.101940  -2655.811851  17516.364032    -57.166606                    
V 10 -14136.679624 -17811.419396 -17926.258148     -0.012420                    
P 11   2246.458293 -18964.150379 -18779.621780   -319.031673                    
V 11  21366.926672  -9803.835059  13048.371864     -0.038903                    
P 12   9259.168020  21975.266060 -11915.588487     99.434197                    
V 12 -11330.091879  -9966.668310 -27041.199114      0.020206                    
P 13  -7956.326077 -15643.152692  19765.175686    170.134115                    
V 13  10262.082835 -23220.020898 -14259.421426     -0.026896                    
P 14  15857.914597  -2143.175447 -20973.468379    216.003000                    
V 14  -8536.722458  25704.419966  -9137.747543      0.006941                    
P 15  -3691.743562  25855.646557  -4083.111113    -98.673622                    
V 15  -4718.452758   4167.012770  30938.479524     -0.009037                    
P 16   7292.044683 -13530.045513  21612.375082   -248.935809                    
V 16  18540.659264  20238.994518   6718.295133     -0.005903                    
P 17 -16090.166827   2887.987246 -20698.019998     82.358544                    
V 17   7455.755532 -25712.618467  -9538.531871     -0.034619                    
P 18  20599.899998  16190.429077  -5004.127678    222.633258                    
V 18   2177.981109   7306.812866  29945.957523      0.018342                    
P 19   7789.159851 -25036.286790  -2585.197061   -318.463166                    
V 19   4098.540555  -1874.401238  31794.052062     -0.034766                    
P 20 -11572.689936 -21623.625615 -10450.950066     72.189227                    
V 20  11718.659585   6621.903332 -27032.447427      0.010553                    
P 21  21153.161499   6703.344570  15508.493049   -259.678575                    
V 21 -17613.142958   6469.413643  21409.591783     -0.023752                    
P 22  20682.441182   4407.290738 -15959.525375    150.470473                    
V 22  12375.648806  16738.891923  20293.535024      0.006609                    
P 23   -990.493125 -23894.293838  11185.307366    148.148401                    
V 23   6773.537672 -12849.204377 -27369.682431     -0.038918                    
P 24 -21403.057172  12677.973980  -9958.739312      3.620852                    
V 24 -12607.217374    829.718710  28139.790427      0.015774                    
P 25  18168.869709  19406.046257   -868.671844     49.186207                    
V 25  -2481.968198    955.656792 -31908.100228      0.017534                    
P 26 -12720.101246  22210.352681   5731.903404   -224.641546                    
V 26    624.429405  -8495.567546  31311.991024      0.135769                    
P 28 -20361.355801  -9301.341726 -13891.877067    200.799244                    
V 28 -10822.613332 -15089.220135  24751.957710      0.035634                    
P 29   7416.913291  17785.262837  18347.514588    372.655432                    
V 29  -8797.906876  21483.266150 -17275.797400      0.041122                    
P 30  15763.541144  -5240.183039  20364.342532   -337.924010                    
V 30  19692.414228  18010.584361 -10449.882423      0.160151                    
P 31  25452.051324  -7638.553606   2779.877876    284.364104                    
V 31   3607.758286   1176.325581 -31770.093570      0.022681                    
P 32  -1843.870918 -20900.083134 -16396.266845   -504.072943                    
V 32  14575.554624  15203.842140 -20296.083905     -0.036133                    
EOF
